{
 "type": "FeatureCollection",
 "name": "artemis_sites_sample",
 "crs": {
  "type": "name",
  "properties": {
   "name": "urn:ogc:def:crs:IAU_2015::30100"
  }
 },
 "note": "REAL-DATA TEST FIXTURE: a verbatim 3-site subset (Site01/Site06/Site11, pins+footprints) of data/gis/vectors/artemis_sites.geojson produced by gis/build_project.py from the PGDA Product 78 LOLA 5 m DEM COG extents (reprojected IAU_2015:30135->30100). Frozen snapshot for test_site_markers_public.py; NOT the live source of truth. Regenerate by re-subsetting the real geojson.",
 "features": [
  {
   "type": "Feature",
   "geometry": {
    "type": "Point",
    "coordinates": [
     -137.48955292,
     -89.46316283
    ]
   },
   "properties": {
    "site": "Site01",
    "name": "Connecting Ridge",
    "label": "Connecting Ridge",
    "dem_min_m": -523.18,
    "dem_max_m": 1959.5,
    "center_lon": -137.489553,
    "center_lat": -89.463163,
    "extent_m": [
     -19000.0,
     -20000.0,
     -3000.0,
     -4000.0
    ],
    "width_m": 16000.0,
    "height_m": 16000.0,
    "area_km2": 256.0,
    "source": "PGDA Product 78 LOLA 5 m DEM extent (gdalinfo), reprojected 30135->30100",
    "kind": "pin"
   }
  },
  {
   "type": "Feature",
   "geometry": {
    "type": "Polygon",
    "coordinates": [
     [
      [
       -101.88865804,
       -89.35969194
      ],
      [
       -102.29068301,
       -89.38032918
      ],
      [
       -102.72038591,
       -89.40093386
      ],
      [
       -103.18067319,
       -89.42150248
      ],
      [
       -103.67486433,
       -89.44203105
      ],
      [
       -104.20676612,
       -89.46251498
      ],
      [
       -104.78076305,
       -89.48294895
      ],
      [
       -105.40192797,
       -89.5033268
      ],
      [
       -106.0761582,
       -89.52364132
      ],
      [
       -106.81034394,
       -89.54388403
      ],
      [
       -107.61257784,
       -89.56404492
      ],
      [
       -108.49241699,
       -89.58411211
      ],
      [
       -109.46121235,
       -89.60407132
      ],
      [
       -110.53252479,
       -89.62390537
      ],
      [
       -111.72265245,
       -89.64359334
      ],
      [
       -113.05130092,
       -89.66310963
      ],
      [
       -114.54243488,
       -89.68242257
      ],
      [
       -116.22535686,
       -89.70149269
      ],
      [
       -118.13606059,
       -89.72027031
      ],
      [
       -120.3188962,
       -89.73869237
      ],
      [
       -122.82854179,
       -89.75667809
      ],
      [
       -125.73216374,
       -89.7741232
      ],
      [
       -129.11139125,
       -89.79089235
      ],
      [
       -133.06319961,
       -89.80680943
      ],
      [
       -137.69780563,
       -89.82164617
      ],
      [
       -143.13010235,
       -89.83511068
      ],
      [
       -147.1152418,
       -89.81778547
      ],
      [
       -150.39554925,
       -89.79973345
      ],
      [
       -153.12607969,
       -89.78113441
      ],
      [
       -155.4245728,
       -89.7621166
      ],
      [
       -157.38013505,
       -89.74277292
      ],
      [
       -159.0604974,
       -89.72317166
      ],
      [
       -160.51756574,
       -89.70336389
      ],
      [
       -161.79151553,
       -89.68338837
      ],
      [
       -162.91377327,
       -89.66327495
      ],
      [
       -163.90918365,
       -89.64304695
      ],
      [
       -164.79759129,
       -89.62272281
      ],
      [
       -165.59500359,
       -89.60231728
      ],
      [
       -166.31445317,
       -89.58184226
      ],
      [
       -166.96664367,
       -89.5613075
      ],
      [
       -167.56043798,
       -89.54072101
      ],
      [
       -168.10323101,
       -89.52008946
      ],
      [
       -168.60123693,
       -89.49941842
      ],
      [
       -169.05971259,
       -89.4787126
      ],
      [
       -169.48313268,
       -89.45797599
      ],
      [
       -169.87532834,
       -89.43721199
      ],
      [
       -170.23959764,
       -89.41642354
      ],
      [
       -170.57879424,
       -89.39561316
      ],
      [
       -170.89539913,
       -89.37478305
      ],
      [
       -171.19157908,
       -89.35393512
      ],
      [
       -171.46923439,
       -89.33307106
      ],
      [
       -169.6850698,
       -89.32961532
      ],
      [
       -167.92089537,
       -89.32551657
      ],
      [
       -166.17966047,
       -89.32078646
      ],
      [
       -164.46406935,
       -89.31543806
      ],
      [
       -162.77656381,
       -89.30948575
      ],
      [
       -161.11931203,
       -89.30294501
      ],
      [
       -159.4942032,
       -89.29583222
      ],
      [
       -157.90284755,
       -89.28816454
      ],
      [
       -156.34658124,
       -89.2799597
      ],
      [
       -154.82647548,
       -89.27123585
      ],
      [
       -153.34334893,
       -89.26201138
      ],
      [
       -151.897783,
       -89.25230484
      ],
      [
       -150.49013893,
       -89.24213474
      ],
      [
       -149.12057632,
       -89.2315195
      ],
      [
       -147.78907228,
       -89.22047729
      ],
      [
       -146.49544083,
       -89.20902602
      ],
      [
       -145.239352,
       -89.19718317
      ],
      [
       -144.02035036,
       -89.18496584
      ],
      [
       -142.83787267,
       -89.17239059
      ],
      [
       -141.69126443,
       -89.15947351
      ],
      [
       -140.5797953,
       -89.14623011
      ],
      [
       -139.50267317,
       -89.13267533
      ],
      [
       -138.45905694,
       -89.11882357
      ],
      [
       -137.44806807,
       -89.10468859
      ],
      [
       -136.46880071,
       -89.09028361
      ],
      [
       -135.53769226,
       -89.10546628
      ],
      [
       -134.5746945,
       -89.12040463
      ],
      [
       -133.57871347,
       -89.13508599
      ],
      [
       -132.54865882,
       -89.14949707
      ],
      [
       -131.4834525,
       -89.16362388
      ],
      [
       -130.38203895,
       -89.17745177
      ],
      [
       -129.24339672,
       -89.19096541
      ],
      [
       -128.0665519,
       -89.20414878
      ],
      [
       -126.85059314,
       -89.21698521
      ],
      [
       -125.5946885,
       -89.22945735
      ],
      [
       -124.29810411,
       -89.24154722
      ],
      [
       -122.96022446,
       -89.25323626
      ],
      [
       -121.58057438,
       -89.26450535
      ],
      [
       -120.15884225,
       -89.27533489
      ],
      [
       -118.69490438,
       -89.28570489
      ],
      [
       -117.18884992,
       -89.29559505
      ],
      [
       -115.64100582,
       -89.30498488
      ],
      [
       -114.05196113,
       -89.31385384
      ],
      [
       -112.42258984,
       -89.32218149
      ],
      [
       -110.75407132,
       -89.32994763
      ],
      [
       -109.04790735,
       -89.33713252
      ],
      [
       -107.30593466,
       -89.34371708
      ],
      [
       -105.53033204,
       -89.34968307
      ],
      [
       -103.72362079,
       -89.35501331
      ],
      [
       -101.88865804,
       -89.35969194
      ]
     ]
    ]
   },
   "properties": {
    "site": "Site01",
    "name": "Connecting Ridge",
    "label": "Connecting Ridge",
    "dem_min_m": -523.18,
    "dem_max_m": 1959.5,
    "center_lon": -137.489553,
    "center_lat": -89.463163,
    "extent_m": [
     -19000.0,
     -20000.0,
     -3000.0,
     -4000.0
    ],
    "width_m": 16000.0,
    "height_m": 16000.0,
    "area_km2": 256.0,
    "source": "PGDA Product 78 LOLA 5 m DEM extent (gdalinfo), reprojected 30135->30100",
    "kind": "footprint"
   }
  },
  {
   "type": "Feature",
   "geometry": {
    "type": "Point",
    "coordinates": [
     37.36666941,
     -85.43810048
    ]
   },
   "properties": {
    "site": "Site06",
    "name": "Nobile Rim 1",
    "label": "Nobile Rim 1",
    "dem_min_m": 859.62,
    "dem_max_m": 6800.09,
    "center_lon": 37.366669,
    "center_lat": -85.4381,
    "extent_m": [
     74000.0,
     100000.0,
     94000.0,
     120000.0
    ],
    "width_m": 20000.0,
    "height_m": 20000.0,
    "area_km2": 400.0,
    "source": "PGDA Product 78 LOLA 5 m DEM extent (gdalinfo), reprojected 30135->30100",
    "kind": "pin"
   }
  },
  {
   "type": "Feature",
   "geometry": {
    "type": "Polygon",
    "coordinates": [
     [
      [
       31.6607511,
       -85.35325142
      ],
      [
       31.93666267,
       -85.33937249
      ],
      [
       32.21092772,
       -85.32538639
      ],
      [
       32.48354851,
       -85.31129407
      ],
      [
       32.75452753,
       -85.29709649
      ],
      [
       33.02386756,
       -85.28279462
      ],
      [
       33.29157162,
       -85.26838941
      ],
      [
       33.557643,
       -85.2538818
      ],
      [
       33.82208522,
       -85.23927273
      ],
      [
       34.08490202,
       -85.22456315
      ],
      [
       34.3460974,
       -85.20975398
      ],
      [
       34.60567555,
       -85.19484615
      ],
      [
       34.86364089,
       -85.17984059
      ],
      [
       35.11999805,
       -85.1647382
      ],
      [
       35.37475184,
       -85.1495399
      ],
      [
       35.62790729,
       -85.1342466
      ],
      [
       35.8794696,
       -85.1188592
      ],
      [
       36.12944414,
       -85.10337858
      ],
      [
       36.37783649,
       -85.08780564
      ],
      [
       36.62465236,
       -85.07214125
      ],
      [
       36.86989765,
       -85.05638631
      ],
      [
       37.11357839,
       -85.04054166
      ],
      [
       37.35570077,
       -85.02460818
      ],
      [
       37.59627115,
       -85.00858672
      ],
      [
       37.83529598,
       -84.99247815
      ],
      [
       38.07278187,
       -84.97628329
      ],
      [
       38.25898012,
       -84.99698607
      ],
      [
       38.44672576,
       -85.01763597
      ],
      [
       38.63603407,
       -85.03823231
      ],
      [
       38.82692047,
       -85.05877443
      ],
      [
       39.01940048,
       -85.07926163
      ],
      [
       39.21348973,
       -85.09969321
      ],
      [
       39.40920398,
       -85.12006848
      ],
      [
       39.60655911,
       -85.1403867
      ],
      [
       39.80557109,
       -85.16064715
      ],
      [
       40.00625601,
       -85.1808491
      ],
      [
       40.20863007,
       -85.2009918
      ],
      [
       40.41270958,
       -85.22107449
      ],
      [
       40.61851092,
       -85.2410964
      ],
      [
       40.82605062,
       -85.26105676
      ],
      [
       41.03534528,
       -85.28095477
      ],
      [
       41.24641158,
       -85.30078963
      ],
      [
       41.45926633,
       -85.32056053
      ],
      [
       41.67392639,
       -85.34026666
      ],
      [
       41.89040874,
       -85.35990717
      ],
      [
       42.1087304,
       -85.37948122
      ],
      [
       42.32890851,
       -85.39898795
      ],
      [
       42.55096026,
       -85.4184265
      ],
      [
       42.77490291,
       -85.43779599
      ],
      [
       43.00075378,
       -85.45709552
      ],
      [
       43.22853026,
       -85.47632419
      ],
      [
       42.98421048,
       -85.49432475
      ],
      [
       42.73793319,
       -85.51224302
      ],
      [
       42.48968398,
       -85.53007802
      ],
      [
       42.2394485,
       -85.54782874
      ],
      [
       41.9872125,
       -85.56549415
      ],
      [
       41.73296176,
       -85.58307322
      ],
      [
       41.47668219,
       -85.60056492
      ],
      [
       41.2183598,
       -85.61796819
      ],
      [
       40.95798067,
       -85.63528197
      ],
      [
       40.69553104,
       -85.65250517
      ],
      [
       40.43099725,
       -85.66963671
      ],
      [
       40.1643658,
       -85.68667549
      ],
      [
       39.89562332,
       -85.7036204
      ],
      [
       39.62475661,
       -85.72047031
      ],
      [
       39.35175263,
       -85.7372241
      ],
      [
       39.07659852,
       -85.75388062
      ],
      [
       38.79928164,
       -85.77043871
      ],
      [
       38.51978952,
       -85.7868972
      ],
      [
       38.23810994,
       -85.80325492
      ],
      [
       37.95423088,
       -85.81951068
      ],
      [
       37.66814058,
       -85.83566327
      ],
      [
       37.37982755,
       -85.85171148
      ],
      [
       37.08928054,
       -85.86765409
      ],
      [
       36.79648862,
       -85.88348987
      ],
      [
       36.50144112,
       -85.89921757
      ],
      [
       36.28339704,
       -85.87800783
      ],
      [
       36.06759035,
       -85.85673934
      ],
      [
       35.85399283,
       -85.83541301
      ],
      [
       35.64257658,
       -85.81402973
      ],
      [
       35.43331401,
       -85.79259038
      ],
      [
       35.22617789,
       -85.77109582
      ],
      [
       35.0211413,
       -85.74954689
      ],
      [
       34.81817766,
       -85.72794444
      ],
      [
       34.6172607,
       -85.70628927
      ],
      [
       34.41836448,
       -85.68458219
      ],
      [
       34.2214634,
       -85.66282399
      ],
      [
       34.02653216,
       -85.64101544
      ],
      [
       33.83354581,
       -85.61915731
      ],
      [
       33.64247968,
       -85.59725033
      ],
      [
       33.45330945,
       -85.57529525
      ],
      [
       33.26601111,
       -85.55329279
      ],
      [
       33.08056095,
       -85.53124366
      ],
      [
       32.89693557,
       -85.50914854
      ],
      [
       32.7151119,
       -85.48700814
      ],
      [
       32.53506716,
       -85.46482311
      ],
      [
       32.35677886,
       -85.44259413
      ],
      [
       32.18022484,
       -85.42032183
      ],
      [
       32.00538321,
       -85.39800687
      ],
      [
       31.83223239,
       -85.37564986
      ],
      [
       31.6607511,
       -85.35325142
      ]
     ]
    ]
   },
   "properties": {
    "site": "Site06",
    "name": "Nobile Rim 1",
    "label": "Nobile Rim 1",
    "dem_min_m": 859.62,
    "dem_max_m": 6800.09,
    "center_lon": 37.366669,
    "center_lat": -85.4381,
    "extent_m": [
     74000.0,
     100000.0,
     94000.0,
     120000.0
    ],
    "width_m": 20000.0,
    "height_m": 20000.0,
    "area_km2": 400.0,
    "source": "PGDA Product 78 LOLA 5 m DEM extent (gdalinfo), reprojected 30135->30100",
    "kind": "footprint"
   }
  },
  {
   "type": "Feature",
   "geometry": {
    "type": "Point",
    "coordinates": [
     -67.93210044,
     -88.68341815
    ]
   },
   "properties": {
    "site": "Site11",
    "name": "de Gerlache Rim",
    "label": "de Gerlache Rim",
    "dem_min_m": -805.16,
    "dem_max_m": 1815.99,
    "center_lon": -67.9321,
    "center_lat": -88.683418,
    "extent_m": [
     -45000.0,
     7000.0,
     -29000.0,
     23000.0
    ],
    "width_m": 16000.0,
    "height_m": 16000.0,
    "area_km2": 256.0,
    "source": "PGDA Product 78 LOLA 5 m DEM extent (gdalinfo), reprojected 30135->30100",
    "kind": "pin"
   }
  },
  {
   "type": "Feature",
   "geometry": {
    "type": "Polygon",
    "coordinates": [
     [
      [
       -62.92791976,
       -88.33351026
      ],
      [
       -62.59393262,
       -88.35227172
      ],
      [
       -62.25226299,
       -88.370976
      ],
      [
       -61.90266787,
       -88.3896211
      ],
      [
       -61.54489522,
       -88.40820493
      ],
      [
       -61.17868362,
       -88.42672533
      ],
      [
       -60.80376193,
       -88.44518001
      ],
      [
       -60.41984895,
       -88.46356661
      ],
      [
       -60.02665307,
       -88.48188264
      ],
      [
       -59.62387188,
       -88.50012552
      ],
      [
       -59.21119187,
       -88.51829254
      ],
      [
       -58.78828801,
       -88.53638087
      ],
      [
       -58.35482345,
       -88.55438754
      ],
      [
       -57.91044912,
       -88.57230948
      ],
      [
       -57.45480344,
       -88.59014343
      ],
      [
       -56.98751194,
       -88.60788602
      ],
      [
       -56.50818698,
       -88.62553369
      ],
      [
       -56.01642741,
       -88.64308275
      ],
      [
       -55.51181836,
       -88.66052931
      ],
      [
       -54.99393098,
       -88.67786931
      ],
      [
       -54.46232221,
       -88.69509849
      ],
      [
       -53.91653467,
       -88.7122124
      ],
      [
       -53.35609658,
       -88.72920639
      ],
      [
       -52.78052167,
       -88.74607556
      ],
      [
       -52.18930932,
       -88.76281482
      ],
      [
       -51.58194466,
       -88.77941881
      ],
      [
       -52.36653765,
       -88.79241919
      ],
      [
       -53.16805495,
       -88.80518826
      ],
      [
       -53.98672614,
       -88.81771855
      ],
      [
       -54.82276272,
       -88.83000236
      ],
      [
       -55.67635568,
       -88.84203185
      ],
      [
       -56.54767293,
       -88.85379901
      ],
      [
       -57.43685664,
       -88.86529567
      ],
      [
       -58.34402045,
       -88.87651354
      ],
      [
       -59.26924657,
       -88.88744416
      ],
      [
       -60.21258287,
       -88.898079
      ],
      [
       -61.17403982,
       -88.90840939
      ],
      [
       -62.1535875,
       -88.91842663
      ],
      [
       -63.15115257,
       -88.92812191
      ],
      [
       -64.16661528,
       -88.93748644
      ],
      [
       -65.19980662,
       -88.94651137
      ],
      [
       -66.25050551,
       -88.95518792
      ],
      [
       -67.31843624,
       -88.96350734
      ],
      [
       -68.40326616,
       -88.97146094
      ],
      [
       -69.50460355,
       -88.97904018
      ],
      [
       -70.62199594,
       -88.98623666
      ],
      [
       -71.75492879,
       -88.99304218
      ],
      [
       -72.90282456,
       -88.99944875
      ],
      [
       -74.06504239,
       -89.00544866
      ],
      [
       -75.24087823,
       -89.01103452
      ],
      [
       -76.42956561,
       -89.01619925
      ],
      [
       -76.71208192,
       -88.99567197
      ],
      [
       -76.98327409,
       -88.97512131
      ],
      [
       -77.24379816,
       -88.95454866
      ],
      [
       -77.49426132,
       -88.93395531
      ],
      [
       -77.73522627,
       -88.91334242
      ],
      [
       -77.9672152,
       -88.8927111
      ],
      [
       -78.19071328,
       -88.87206236
      ],
      [
       -78.40617184,
       -88.85139715
      ],
      [
       -78.61401123,
       -88.83071635
      ],
      [
       -78.81462337,
       -88.81002078
      ],
      [
       -79.00837414,
       -88.78931119
      ],
      [
       -79.1956054,
       -88.76858831
      ],
      [
       -79.37663698,
       -88.74785279
      ],
      [
       -79.55176834,
       -88.72710527
      ],
      [
       -79.7212802,
       -88.70634631
      ],
      [
       -79.88543592,
       -88.68557648
      ],
      [
       -80.04448284,
       -88.66479628
      ],
      [
       -80.19865347,
       -88.6440062
      ],
      [
       -80.34816653,
       -88.62320668
      ],
      [
       -80.49322801,
       -88.60239817
      ],
      [
       -80.63403202,
       -88.58158104
      ],
      [
       -80.77076164,
       -88.5607557
      ],
      [
       -80.90358972,
       -88.53992249
      ],
      [
       -81.03267953,
       -88.51908175
      ],
      [
       -81.15818544,
       -88.4982338
      ],
      [
       -80.3643299,
       -88.49484578
      ],
      [
       -79.57419147,
       -88.49117019
      ],
      [
       -78.78804243,
       -88.48720911
      ],
      [
       -78.0061463,
       -88.48296478
      ],
      [
       -77.22875744,
       -88.47843958
      ],
      [
       -76.45612064,
       -88.47363601
      ],
      [
       -75.6884708,
       -88.46855668
      ],
      [
       -74.92603266,
       -88.46320432
      ],
      [
       -74.16902052,
       -88.4575818
      ],
      [
       -73.41763806,
       -88.45169204
      ],
      [
       -72.67207822,
       -88.44553809
      ],
      [
       -71.93252308,
       -88.43912307
      ],
      [
       -71.19914378,
       -88.4324502
      ],
      [
       -70.47210053,
       -88.42552274
      ],
      [
       -69.75154264,
       -88.41834406
      ],
      [
       -69.03760855,
       -88.41091755
      ],
      [
       -68.33042594,
       -88.40324668
      ],
      [
       -67.63011189,
       -88.39533494
      ],
      [
       -66.93677297,
       -88.3871859
      ],
      [
       -66.25050551,
       -88.37880313
      ],
      [
       -65.57139573,
       -88.37019023
      ],
      [
       -64.89952005,
       -88.36135084
      ],
      [
       -64.23494531,
       -88.35228861
      ],
      [
       -63.57772904,
       -88.3430072
      ],
      [
       -62.92791976,
       -88.33351026
      ]
     ]
    ]
   },
   "properties": {
    "site": "Site11",
    "name": "de Gerlache Rim",
    "label": "de Gerlache Rim",
    "dem_min_m": -805.16,
    "dem_max_m": 1815.99,
    "center_lon": -67.9321,
    "center_lat": -88.683418,
    "extent_m": [
     -45000.0,
     7000.0,
     -29000.0,
     23000.0
    ],
    "width_m": 16000.0,
    "height_m": 16000.0,
    "area_km2": 256.0,
    "source": "PGDA Product 78 LOLA 5 m DEM extent (gdalinfo), reprojected 30135->30100",
    "kind": "footprint"
   }
  }
 ]
}